[{"OBJECT_NAME":"ONEWEB-0420","OBJECT_ID":"2021-132AC","EPOCH":"2026-03-09T20:23:35.431296","MEAN_MOTION":13.18699386,"ECCENTRICITY":0.00019303,"INCLINATION":87.9247,"RA_OF_ASC_NODE":355.1939,"ARG_OF_PERICENTER":82.0546,"MEAN_ANOMALY":278.0805,"EPHEMERIS_TYPE":0,"CLASSIFICATION_TYPE":"U","NORAD_CAT_ID":50495,"ELEMENT_SET_NO":999,"REV_AT_EPOCH":20848,"BSTAR":-0.0062178635,"MEAN_MOTION_DOT":-2.438e-5,"MEAN_MOTION_DDOT":0},{"OBJECT_NAME":"SL-8 R\/B","OBJECT_ID":"1969-024B","EPOCH":"2026-03-09T20:50:53.404224","MEAN_MOTION":13.19585212,"ECCENTRICITY":0.00099465,"INCLINATION":73.9913,"RA_OF_ASC_NODE":323.068,"ARG_OF_PERICENTER":168.6107,"MEAN_ANOMALY":264.7617,"EPHEMERIS_TYPE":0,"CLASSIFICATION_TYPE":"U","NORAD_CAT_ID":3819,"ELEMENT_SET_NO":999,"REV_AT_EPOCH":74378,"BSTAR":0.00036735178,"MEAN_MOTION_DOT":1.27e-6,"MEAN_MOTION_DDOT":0}]
